{
  "norad_id": 65906,
  "name": "STARLINK-35385",
  "history": [
    {
      "epoch": "2026-03-28T19:31:29.849088",
      "apogee_km": 476.1928784220054,
      "perigee_km": 474.2695491664863,
      "latitude_deg": -26.285581416117083,
      "longitude_deg": 128.6998323199805,
      "semi_major_axis_km": 6853.368213794245,
      "eccentricity": 0.00014032,
      "inclination_deg": 53.1592,
      "raan_deg": 282.4116,
      "arg_perigee_deg": 101.653,
      "mean_anomaly_deg": 258.4628,
      "mean_motion_rev_day": 15.30194593
    }
  ]
}